SL-16 R/B               
1 26070U 00006B   21355.58674638  .00000136  00000+0  93766-4 0  9998
2 26070  71.0032  92.9985 0016682 356.0788   4.0201 14.15477494130740
MTI                     
1 26102U 00014A   21355.57484006  .00044944  00000+0  40091-3 0  9997
2 26102  97.4545 272.7629 0004933   8.9217 351.2135 15.68304242210590
TITAN 4B R/B            
1 26474U 00047B   21355.39565896  .00001074  00000+0  10222-3 0  9992
2 26474  67.9939 356.0647 0059980 307.3743  52.1946 14.96329639161802
ENVISAT                 
1 27386U 02009A   21355.55538194  .00000111  00000+0  50067-4 0  9997
2 27386  98.1651 340.2074 0001272  86.2234  21.9040 14.38062026 37890
IDEFIX & ARIANE 42P R/B 
1 27422U 02021B   21355.43574635  .00000098  00000+0  55080-4 0  9993
2 27422  98.4285 302.0037 0013058  45.0333 315.1906 14.29347667 24027
AQUA                    
1 27424U 02022A   21355.45179965  .00000382  00000+0  94800-4 0  9994
2 27424  98.2299 294.2527 0001817  75.6629  35.0651 14.57097233 44260
CZ-4B R/B               
1 27432U 02024C   21355.59262637  .00000001  00000+0  24029-4 0  9993
2 27432  99.0765  13.0465 0051217  59.3822  50.0217 14.14120359 11681
MIDORI II (ADEOS-II)    
1 27597U 02056A   21355.44917898  .00000127  00000+0  69469-4 0  9996
2 27597  98.5876 297.2037 0001404 127.8664 232.2644 14.27539340990568
H-2A R/B                
1 27601U 02056E   21355.60301791  .00000021  00000+0  22007-4 0  9999
2 27601  98.1806   7.3485 0073229  72.1639  35.1936 14.32025745993717
CZ-4B R/B               
1 28059U 03049C   21355.53707754  .00000134  00000+0  43968-4 0  9995
2 28059  98.5070 284.7089 0048905 250.6332 108.9572 14.52694120962980
CZ-2C R/B               
1 28222U 04012C   21355.56817127  .00003038  00000+0  18020-3 0  9993
2 28222  97.7521 328.5485 0044891 302.5775 122.2280 15.11328284969353
SL-16 R/B               
1 28353U 04021B   21355.61104393  .00000069  00000+0  60870-4 0  9990
2 28353  70.9993 221.2802 0006746 230.2963 129.7565 14.14249130905205
CZ-4B R/B               
1 28415U 04035C   21355.58376238  .00001438  00000+0  96833-4 0  9998
2 28415  97.5420  34.7352 0049455 268.0377  91.5187 15.07356017946794
CZ-2C R/B               
1 28480U 04046B   21355.59475551  .00000024  00000+0  23947-4 0  9997
2 28480  98.0530 352.5175 0142435  29.6928  76.3463 14.25775023889091
ARIANE 5 R/B            
1 28499U 04049H   21355.55234336  .00000336  00000+0  48839-4 0  9993
2 28499  98.0838 105.9323 0090627 289.4774  79.8552 14.80201085917763
CZ-2D R/B               
1 28738U 05024B   21355.59512545  .00001867  00000+0  10982-3 0  9995
2 28738  97.3552   4.9760 0013358  76.1265 284.1451 15.12764325904851
SUZAKU (ASTRO-EII)      
1 28773U 05025A   21355.48364647  .00004318  00000+0  19592-3 0  9991
2 28773  31.3829  23.5801 0004238   7.0663 353.0044 15.19168068907924
ALOS (DAICHI)           
1 28931U 06002A   21355.56008113  .00000247  00000+0  57019-4 0  9999
2 28931  97.9115 322.3570 0001581 109.0933 251.0435 14.62941169848417
H-2A R/B                
1 28932U 06002B   21355.62572819  .00001219  00000+0  11600-3 0  9991
2 28932  98.3140  23.2743 0086883 315.4120 156.0539 14.92827403863502
AKARI (ASTRO-F)         
1 28939U 06005A   21355.09304276  .00015706  00000+0  35897-3 0  9992
2 28939  98.2224  41.1332 0081901 187.3204 172.6851 15.39410804865596
RESURS-DK 1             
1 29228U 06021A   21355.05848601  .00000611  00000+0  52822-4 0  9990
2 29228  69.9348 223.4960 0006597 309.3725  50.6850 15.02835460855574
GENESIS 1               
1 29252U 06029A   21355.54317790  .00003844  00000+0  18356-3 0  9993
2 29252  64.5235 294.6184 0058784 288.1475  71.3253 15.19209985851934
CZ-4B R/B               
1 29507U 06046C   21355.60104114  .00000729  00000+0  60223-4 0  9996
2 29507  97.7560  21.2949 0048178 104.5452 256.1122 15.01257203828187
CZ-2C R/B               
1 31114U 07010B   21355.49153434  .00000042  00000+0  37931-4 0  9999
2 31114  98.2278 176.0535 0060816  97.0284 263.7815 14.19384393761311
COSMO-SKYMED 1          
1 31598U 07023A   21355.51161052  .00000005  00000+0  71584-5 0  9999
2 31598  97.8803 176.7618 0001289  91.3978 268.7383 14.82156197786604
GENESIS 2               
1 31789U 07028A   21355.29502398  .00003455  00000+0  17640-3 0  9996
2 31789  64.4970 338.1736 0027881 352.1100   7.9580 15.18213945798843
COSMOS 2428             
1 31792U 07029A   21355.59551285  .00000297  00000+0  18711-3 0  9994
2 31792  70.9234 192.9482 0009834 307.0721  52.9500 14.12423155746734
SL-16 R/B               
1 31793U 07029B   21355.60083642  .00000407  00000+0  23744-3 0  9999
2 31793  70.9743 166.4848 0002021 256.0544 167.5731 14.14457834747710
KORONAS-FOTON           
1 33504U 09003A   21355.59582221  .00001803  00000+0  91061-4 0  9999
2 33504  82.4416  33.1924 0019257 163.3802 196.8066 15.16312930711007
H-2A R/B                
1 38341U 12025E   21355.53183437  .00000834  00000+0  10444-3 0  9999
2 38341  98.5187 193.8139 0054053 258.4718 101.0422 14.84355621519256
CUSAT 2 & FALCON 9 R/B  
1 39271U 13055G   21355.56596162  .00013665  00000+0  31510-3 0  9995
2 39271  80.9639  29.8229 0553905 300.9153  53.8697 14.56280332430839
CZ-2C R/B               
1 39364U 13059B   21355.58762019  .00005601  00000+0  19674-3 0  9998
2 39364  97.1883  50.0187 0043907 246.0548 113.6092 15.28859800453017
SL-4 R/B                
1 39679U 14021B   21355.57217971  .00001169  00000+0  72886-4 0  9998
2 39679  51.6162  63.4994 0168996  60.4449 301.3248 15.07463512422270
ALOS-2                  
1 39766U 14029A   21355.46285748 -.00000065  00000+0 -17744-5 0  9997
2 39766  97.9230  90.1516 0001512  92.6014 267.5376 14.79471013409316
CZ-2C R/B               
1 40306U 14071B   21355.56502070  .00019921  00000+0  33538-3 0  9993
2 40306  97.4001 317.5821 0011455 318.7798  41.2588 15.51677813399230
SL-27 R/B               
1 40354U 14084B   21355.53732309  .00004881  00000+0  11332-3 0  9994
2 40354  74.7390 324.7407 0037455 236.2561 123.5082 15.41864982393165
YAOGAN 29               
1 41038U 15069A   21355.54940599  .00000101  00000+0  20100-4 0  9996
2 41038  98.0488 350.0380 0000588  81.5466 278.5816 14.80551314327961
ASTRO-H (HITOMI)        
1 41337U 16012A   21355.55987149  .00001012  00000+0  74649-4 0  9999
2 41337  31.0049 108.4912 0012177 128.2604 231.9128 14.98984385320407
HXMT (HUIYAN)           
1 42758U 17034A   21355.59578068  .00001130  00000+0  82700-4 0  9990
2 42758  43.0181 245.6919 0009257 253.4963 180.6732 15.09511093249293
CZ-2C R/B               
1 43521U 18054D   21355.51405149  .00003449  00000+0  18331-3 0  9996
2 43521  35.1553  15.6548 0081526 309.5750  49.7785 15.11979845192720
AEOLUS                  
1 43600U 18066A   21355.53452486  .00076405  00000+0  29132-3 0  9998
2 43600  96.7114 359.4087 0007180  77.6824 282.5252 15.87293455192916
SAOCOM 1A               
1 43641U 18076A   21355.51995024  .00000121  00000+0  21787-4 0  9993
2 43641  97.8836 179.7654 0001499  78.8029 281.3359 14.82161497173372
SAOCOM 1B               
1 46265U 20059A   21355.55110189  .00000113  00000+0  20766-4 0  9994
2 46265  97.8835 178.8664 0001391  81.4006 278.7376 14.82159677 70779
2020-063G               
1 46395U 20063G   21355.58731347  .01409888  11974-4  35728-3 0  9994
2 46395  50.1918  27.8373 0003302  10.9645 349.2102 16.28108529 75203
SL-4 R/B                
1 47547U 21008B   21355.58599939  .00252298  52001-5  60198-3 0  9999
2 47547  67.1183 183.9920 0229331 147.0877 214.4817 15.64362226 49143
TIANHE                  
1 48274U 21035A   21354.42454861  .00012117  00000+0  14857-3 0  9994
2 48274  41.4688 227.8263 0005121 257.6004 102.7490 15.60155880 36822
